EUTELSAT QUANTUM        
1 49056U 21069B   25297.77109041  .00000138  00000+0  00000+0 0  9996
2 49056   0.0536  65.8166 0002501 162.2662 130.6629  1.00271508 15563
EUTELSAT KONNECT VHTS   
1 53765U 22110A   25297.26265019  .00000029  00000+0  00000+0 0  9997
2 53765   0.0593  92.8429 0002588  95.8552 301.4942  1.00270486  4461
EUTELSAT HOTBIRD 13F    
1 54048U 22134A   25297.26473020  .00000100  00000+0  00000+0 0  9991
2 54048   0.0500 285.5315 0002079  80.8484 134.8620  1.00273698 11010
EUTELSAT HOTBIRD 13G    
1 54225U 22146A   25297.26473020  .00000100  00000+0  00000+0 0  9991
2 54225   0.0410 234.8094 0001956 298.5128 327.9006  1.00272235  5106
EUTELSAT 10B            
1 54259U 22157A   25297.33553720  .00000081  00000+0  00000+0 0  9992
2 54259   0.0616  90.5143 0001617  39.7533  33.5227  1.00272826 10660
EUTELSAT 36D            
1 59346U 24059A   25295.62808422  .00000166  00000+0  00000+0 0  9993
2 59346   0.0195 237.8099 0000206 239.2474 176.2123  1.00272061  5760
